SUPERVIEW NEO-2 04      
1 62080U 24218C   26068.56191197  .00004175  00000+0  19862-3 0  9999
2 62080  97.4396  77.3157 0001369 109.3587 250.7796 15.19718850 71311
HAWK-12C                
1 64621U 25138A   26068.95480737  .00006237  00000+0  31483-3 0  9992
2 64621  97.4363  73.1446 0015792 124.4693 235.8035 15.17353041 38817
